DELTA 2 R/B             
1 25876U 99041E   26064.40658203  .00001706  00000+0  31216-3 0  9996
2 25876  51.7641 318.3878 0502349 335.7931  22.0116 14.11824182362427
HELIOS 1B               
1 25977U 99064A   26064.61103783  .00003052  00000+0  34149-3 0  9998
2 25977  98.1698 326.7346 0002524  80.2953 279.8547 14.87679577684656
TERRA                   
1 25994U 99068A   26064.62499476  .00000631  00000+0  13767-3 0  9992
2 25994  97.9601 118.2148 0002453 161.1551 359.5896 14.61009879394480
SL-16 R/B               
1 26070U 00006B   26064.49078754  .00000130  00000+0  90116-4 0  9997
2 26070  71.0012 106.6669 0017083 196.0454 164.0131 14.15825287347968
TITAN 4B R/B            
1 26474U 00047B   26064.52223296  .00005800  00000+0  36289-3 0  9996
2 26474  67.9890  52.2280 0038200  40.3176 320.0794 15.09513500392285
ENVISAT                 
1 27386U 02009A   26064.60090234  .00000200  00000+0  78600-4 0  9995
2 27386  98.3723  18.2957 0001330  84.3675  89.0991 14.39035217258581
IDEFIX & ARIANE 42P R/B 
1 27422U 02021B   26064.58034120  .00000414  00000+0  17379-3 0  9991
2 27422  98.5867   3.2358 0011334 194.4976 165.5884 14.31022769243433
AQUA                    
1 27424U 02022A   26064.66831787  .00001558  00000+0  32078-3 0  9990
2 27424  98.4169  31.9601 0000608  62.8235 112.9135 14.61965883268142
CZ-4B R/B               
1 27432U 02024C   26064.63446895  .00000077  00000+0  62407-4 0  9995
2 27432  98.8847 118.0614 0050671  35.6334 117.2258 14.14546940228666
MIDORI II (ADEOS-II)    
1 27597U 02056A   26064.60341668  .00000445  00000+0  19287-3 0  9997
2 27597  98.7764  23.0529 0001738  48.3112 311.8218 14.29281477209710
H-2A R/B                
1 27601U 02056E   26064.53077986  .00000382  00000+0  14828-3 0  9990
2 27601  98.3196  25.0548 0070248 173.0125 303.1477 14.33757611213513
CZ-4B R/B               
1 28059U 03049C   26064.60128381  .00000578  00000+0  14424-3 0  9994
2 28059  98.6876  59.3457 0047109 243.6440 115.9914 14.55015808186009
CZ-2C R/B               
1 28222U 04012C   26064.45094039  .00064739  00000+0  68298-3 0  9999
2 28222  97.7238 129.3437 0013136 327.0449  32.9988 15.63926274203612
SL-16 R/B               
1 28353U 04021B   26064.56782330 -.00000191  00000+0 -74389-4 0  9997
2 28353  70.9991 241.1427 0003807  17.4945 342.6308 14.14599243122257
CZ-4B R/B               
1 28415U 04035C   26064.52452831  .00009675  00000+0  34138-3 0  9998
2 28415  97.3499  98.8166 0031429 346.6915  13.3493 15.28973488179278
CZ-2C R/B               
1 28480U 04046B   26064.20831619  .00000157  00000+0  73366-4 0  9995
2 28480  98.1987 339.4710 0139622 167.6551 192.8111 14.26990318107865
ARIANE 5 R/B            
1 28499U 04049H   26064.45582592  .00001132  00000+0  13087-3 0  9995
2 28499  98.2618 232.7545 0084238   5.6646 354.5500 14.85257082145169
